{
"type": "FeatureCollection",
"name": "lexleach_week01_vector2",
"crs": { "type": "name", "properties": { "name": "urn:ogc:def:crs:OGC:1.3:CRS84" } },
"features": [
{ "type": "Feature", "properties": { "fid": 1, "name": "Woodleaf Solar Facility", "county": "Rowan", "capacity_mw": 6.0, "operation_yr": 2018 }, "geometry": { "type": "Point", "coordinates": [ -80.60845, 35.72443 ] } },
{ "type": "Feature", "properties": { "fid": 2, "name": "Monroe Solar Facility", "county": "Union", "capacity_mw": 54.6, "operation_yr": 2017 }, "geometry": { "type": "Point", "coordinates": [ -80.62562, 34.92995 ] } },
{ "type": "Feature", "properties": { "fid": 3, "name": "Gaston Solar Power Plant", "county": "Gaston", "capacity_mw": 25.0, "operation_yr": 2020 }, "geometry": { "type": "Point", "coordinates": [ -81.1343, 35.3224 ] } },
{ "type": "Feature", "properties": { "fid": 4, "name": "Pasquotank Solar", "county": "Pasquotank", "capacity_mw": 20.0, "operation_yr": 2014 }, "geometry": { "type": "Point", "coordinates": [ -76.30611, 36.26472 ] } },
{ "type": "Feature", "properties": { "fid": 5, "name": "SoINCPower5 / Battleboro Solar", "county": "Nash", "capacity_mw": 5.0, "operation_yr": 2015 }, "geometry": { "type": "Point", "coordinates": [ -77.76246, 36.0528 ] } }
]
}
